ONEWEB-0501             
1 54119U 22138G   23341.85488952  .00000037  00000+0  61200-4 0  9990
2 54119  87.9185 128.5584 0000898 110.1001 250.0228 13.19726069 56028
ONEWEB-0502             
1 54120U 22138H   23341.46157837  .00000035  00000+0  55896-4 0  9996
2 54120  87.9182 128.6283 0001128  99.8929 260.2331 13.19727341 55125
ONEWEB-0503             
1 54121U 22138J   23341.45052804  .00000099  00000+0  21462-3 0  9995
2 54121  87.9188 128.6393 0001627  80.9325 279.1992 13.19727267 55117
ONEWEB-0504             
1 54122U 22138K   23341.43787903  .00000069  00000+0  14038-3 0  9997
2 54122  87.9180 128.6412 0001124  88.9610 271.1652 13.19723728 55123
ONEWEB-0505             
1 54123U 22138L   23341.43472462  .00000174  00000+0  40195-3 0  9999
2 54123  87.9184 128.6405 0000698 109.6946 250.4262 13.19728758 55101
ONEWEB-0506             
1 54124U 22138M   23341.48526740 -.00000093  00000+0 -26462-3 0  9997
2 54124  87.9189 128.6281 0001111  98.2505 261.8754 13.19722451 55100
ONEWEB-0507             
1 54125U 22138N   23341.42997719 -.00003554  00000+0 -89123-2 0  9997
2 54125  87.9188 128.6424 0002325 126.2825 233.8523 13.19740130 55145
ONEWEB-0508             
1 54126U 22138P   23341.42683885  .00000120  00000+0  26750-3 0  9996
2 54126  87.9184 128.6451 0000906 112.4737 247.6492 13.19725823 55122
