<?xml version="1.0" encoding="UTF-8"?>
<ndm xmlns:xsi="http://www.w3.org/2001/XMLSchema-instance" xsi:noNamespaceSchemaLocation="https://sanaregistry.org/r/ndmxml_unqualified/ndmxml-2.0.0-master-2.0.xsd">
<omm id="CCSDS_OMM_VERS" version="2.0">
<header><CREATION_DATE/><ORIGINATOR/></header><body><segment><metadata><OBJECT_NAME>ONEWEB-0501</OBJECT_NAME><OBJECT_ID>2022-138G</OBJECT_ID><CENTER_NAME>EARTH</CENTER_NAME><REF_FRAME>TEME</REF_FRAME><TIME_SYSTEM>UTC</TIME_SYSTEM><MEAN_ELEMENT_THEORY>SGP4</MEAN_ELEMENT_THEORY></metadata><data><meanElements><EPOCH>2023-12-07T20:31:02.454528</EPOCH><MEAN_MOTION>13.19726069</MEAN_MOTION><ECCENTRICITY>.0000898</ECCENTRICITY><INCLINATION>87.9185</INCLINATION><RA_OF_ASC_NODE>128.5584</RA_OF_ASC_NODE><ARG_OF_PERICENTER>110.1001</ARG_OF_PERICENTER><MEAN_ANOMALY>250.0228</MEAN_ANOMALY></meanElements><tleParameters><EPHEMERIS_TYPE>0</EPHEMERIS_TYPE><CLASSIFICATION_TYPE>U</CLASSIFICATION_TYPE><NORAD_CAT_ID>54119</NORAD_CAT_ID><ELEMENT_SET_NO>999</ELEMENT_SET_NO><REV_AT_EPOCH>5602</REV_AT_EPOCH><BSTAR>.612E-4</BSTAR><MEAN_MOTION_DOT>.37E-6</MEAN_MOTION_DOT><MEAN_MOTION_DDOT>0</MEAN_MOTION_DDOT></tleParameters></data></segment></body></omm>
<omm id="CCSDS_OMM_VERS" version="2.0">
<header><CREATION_DATE/><ORIGINATOR/></header><body><segment><metadata><OBJECT_NAME>ONEWEB-0502</OBJECT_NAME><OBJECT_ID>2022-138H</OBJECT_ID><CENTER_NAME>EARTH</CENTER_NAME><REF_FRAME>TEME</REF_FRAME><TIME_SYSTEM>UTC</TIME_SYSTEM><MEAN_ELEMENT_THEORY>SGP4</MEAN_ELEMENT_THEORY></metadata><data><meanElements><EPOCH>2023-12-07T11:04:40.371168</EPOCH><MEAN_MOTION>13.19727341</MEAN_MOTION><ECCENTRICITY>.0001128</ECCENTRICITY><INCLINATION>87.9182</INCLINATION><RA_OF_ASC_NODE>128.6283</RA_OF_ASC_NODE><ARG_OF_PERICENTER>99.8929</ARG_OF_PERICENTER><MEAN_ANOMALY>260.2331</MEAN_ANOMALY></meanElements><tleParameters><EPHEMERIS_TYPE>0</EPHEMERIS_TYPE><CLASSIFICATION_TYPE>U</CLASSIFICATION_TYPE><NORAD_CAT_ID>54120</NORAD_CAT_ID><ELEMENT_SET_NO>999</ELEMENT_SET_NO><REV_AT_EPOCH>5512</REV_AT_EPOCH><BSTAR>.55896E-4</BSTAR><MEAN_MOTION_DOT>.35E-6</MEAN_MOTION_DOT><MEAN_MOTION_DDOT>0</MEAN_MOTION_DDOT></tleParameters></data></segment></body></omm>
<omm id="CCSDS_OMM_VERS" version="2.0">
<header><CREATION_DATE/><ORIGINATOR/></header><body><segment><metadata><OBJECT_NAME>ONEWEB-0503</OBJECT_NAME><OBJECT_ID>2022-138J</OBJECT_ID><CENTER_NAME>EARTH</CENTER_NAME><REF_FRAME>TEME</REF_FRAME><TIME_SYSTEM>UTC</TIME_SYSTEM><MEAN_ELEMENT_THEORY>SGP4</MEAN_ELEMENT_THEORY></metadata><data><meanElements><EPOCH>2023-12-07T10:48:45.622656</EPOCH><MEAN_MOTION>13.19727267</MEAN_MOTION><ECCENTRICITY>.0001627</ECCENTRICITY><INCLINATION>87.9188</INCLINATION><RA_OF_ASC_NODE>128.6393</RA_OF_ASC_NODE><ARG_OF_PERICENTER>80.9325</ARG_OF_PERICENTER><MEAN_ANOMALY>279.1992</MEAN_ANOMALY></meanElements><tleParameters><EPHEMERIS_TYPE>0</EPHEMERIS_TYPE><CLASSIFICATION_TYPE>U</CLASSIFICATION_TYPE><NORAD_CAT_ID>54121</NORAD_CAT_ID><ELEMENT_SET_NO>999</ELEMENT_SET_NO><REV_AT_EPOCH>5511</REV_AT_EPOCH><BSTAR>.21462E-3</BSTAR><MEAN_MOTION_DOT>.99E-6</MEAN_MOTION_DOT><MEAN_MOTION_DDOT>0</MEAN_MOTION_DDOT></tleParameters></data></segment></body></omm>
<omm id="CCSDS_OMM_VERS" version="2.0">
<header><CREATION_DATE/><ORIGINATOR/></header><body><segment><metadata><OBJECT_NAME>ONEWEB-0504</OBJECT_NAME><OBJECT_ID>2022-138K</OBJECT_ID><CENTER_NAME>EARTH</CENTER_NAME><REF_FRAME>TEME</REF_FRAME><TIME_SYSTEM>UTC</TIME_SYSTEM><MEAN_ELEMENT_THEORY>SGP4</MEAN_ELEMENT_THEORY></metadata><data><meanElements><EPOCH>2023-12-07T10:30:32.748192</EPOCH><MEAN_MOTION>13.19723728</MEAN_MOTION><ECCENTRICITY>.0001124</ECCENTRICITY><INCLINATION>87.9180</INCLINATION><RA_OF_ASC_NODE>128.6412</RA_OF_ASC_NODE><ARG_OF_PERICENTER>88.9610</ARG_OF_PERICENTER><MEAN_ANOMALY>271.1652</MEAN_ANOMALY></meanElements><tleParameters><EPHEMERIS_TYPE>0</EPHEMERIS_TYPE><CLASSIFICATION_TYPE>U</CLASSIFICATION_TYPE><NORAD_CAT_ID>54122</NORAD_CAT_ID><ELEMENT_SET_NO>999</ELEMENT_SET_NO><REV_AT_EPOCH>5512</REV_AT_EPOCH><BSTAR>.14038E-3</BSTAR><MEAN_MOTION_DOT>.69E-6</MEAN_MOTION_DOT><MEAN_MOTION_DDOT>0</MEAN_MOTION_DDOT></tleParameters></data></segment></body></omm>
<omm id="CCSDS_OMM_VERS" version="2.0">
<header><CREATION_DATE/><ORIGINATOR/></header><body><segment><metadata><OBJECT_NAME>ONEWEB-0505</OBJECT_NAME><OBJECT_ID>2022-138L</OBJECT_ID><CENTER_NAME>EARTH</CENTER_NAME><REF_FRAME>TEME</REF_FRAME><TIME_SYSTEM>UTC</TIME_SYSTEM><MEAN_ELEMENT_THEORY>SGP4</MEAN_ELEMENT_THEORY></metadata><data><meanElements><EPOCH>2023-12-07T10:26:00.207168</EPOCH><MEAN_MOTION>13.19728758</MEAN_MOTION><ECCENTRICITY>.0000698</ECCENTRICITY><INCLINATION>87.9184</INCLINATION><RA_OF_ASC_NODE>128.6405</RA_OF_ASC_NODE><ARG_OF_PERICENTER>109.6946</ARG_OF_PERICENTER><MEAN_ANOMALY>250.4262</MEAN_ANOMALY></meanElements><tleParameters><EPHEMERIS_TYPE>0</EPHEMERIS_TYPE><CLASSIFICATION_TYPE>U</CLASSIFICATION_TYPE><NORAD_CAT_ID>54123</NORAD_CAT_ID><ELEMENT_SET_NO>999</ELEMENT_SET_NO><REV_AT_EPOCH>5510</REV_AT_EPOCH><BSTAR>.40195E-3</BSTAR><MEAN_MOTION_DOT>.174E-5</MEAN_MOTION_DOT><MEAN_MOTION_DDOT>0</MEAN_MOTION_DDOT></tleParameters></data></segment></body></omm>
<omm id="CCSDS_OMM_VERS" version="2.0">
<header><CREATION_DATE/><ORIGINATOR/></header><body><segment><metadata><OBJECT_NAME>ONEWEB-0506</OBJECT_NAME><OBJECT_ID>2022-138M</OBJECT_ID><CENTER_NAME>EARTH</CENTER_NAME><REF_FRAME>TEME</REF_FRAME><TIME_SYSTEM>UTC</TIME_SYSTEM><MEAN_ELEMENT_THEORY>SGP4</MEAN_ELEMENT_THEORY></metadata><data><meanElements><EPOCH>2023-12-07T11:38:47.103360</EPOCH><MEAN_MOTION>13.19722451</MEAN_MOTION><ECCENTRICITY>.0001111</ECCENTRICITY><INCLINATION>87.9189</INCLINATION><RA_OF_ASC_NODE>128.6281</RA_OF_ASC_NODE><ARG_OF_PERICENTER>98.2505</ARG_OF_PERICENTER><MEAN_ANOMALY>261.8754</MEAN_ANOMALY></meanElements><tleParameters><EPHEMERIS_TYPE>0</EPHEMERIS_TYPE><CLASSIFICATION_TYPE>U</CLASSIFICATION_TYPE><NORAD_CAT_ID>54124</NORAD_CAT_ID><ELEMENT_SET_NO>999</ELEMENT_SET_NO><REV_AT_EPOCH>5510</REV_AT_EPOCH><BSTAR>-.26462E-3</BSTAR><MEAN_MOTION_DOT>-.93E-6</MEAN_MOTION_DOT><MEAN_MOTION_DDOT>0</MEAN_MOTION_DDOT></tleParameters></data></segment></body></omm>
<omm id="CCSDS_OMM_VERS" version="2.0">
<header><CREATION_DATE/><ORIGINATOR/></header><body><segment><metadata><OBJECT_NAME>ONEWEB-0507</OBJECT_NAME><OBJECT_ID>2022-138N</OBJECT_ID><CENTER_NAME>EARTH</CENTER_NAME><REF_FRAME>TEME</REF_FRAME><TIME_SYSTEM>UTC</TIME_SYSTEM><MEAN_ELEMENT_THEORY>SGP4</MEAN_ELEMENT_THEORY></metadata><data><meanElements><EPOCH>2023-12-07T10:19:10.029216</EPOCH><MEAN_MOTION>13.19740130</MEAN_MOTION><ECCENTRICITY>.0002325</ECCENTRICITY><INCLINATION>87.9188</INCLINATION><RA_OF_ASC_NODE>128.6424</RA_OF_ASC_NODE><ARG_OF_PERICENTER>126.2825</ARG_OF_PERICENTER><MEAN_ANOMALY>233.8523</MEAN_ANOMALY></meanElements><tleParameters><EPHEMERIS_TYPE>0</EPHEMERIS_TYPE><CLASSIFICATION_TYPE>U</CLASSIFICATION_TYPE><NORAD_CAT_ID>54125</NORAD_CAT_ID><ELEMENT_SET_NO>999</ELEMENT_SET_NO><REV_AT_EPOCH>5514</REV_AT_EPOCH><BSTAR>-.89123E-2</BSTAR><MEAN_MOTION_DOT>-.3554E-4</MEAN_MOTION_DOT><MEAN_MOTION_DDOT>0</MEAN_MOTION_DDOT></tleParameters></data></segment></body></omm>
<omm id="CCSDS_OMM_VERS" version="2.0">
<header><CREATION_DATE/><ORIGINATOR/></header><body><segment><metadata><OBJECT_NAME>ONEWEB-0508</OBJECT_NAME><OBJECT_ID>2022-138P</OBJECT_ID><CENTER_NAME>EARTH</CENTER_NAME><REF_FRAME>TEME</REF_FRAME><TIME_SYSTEM>UTC</TIME_SYSTEM><MEAN_ELEMENT_THEORY>SGP4</MEAN_ELEMENT_THEORY></metadata><data><meanElements><EPOCH>2023-12-07T10:14:38.876640</EPOCH><MEAN_MOTION>13.19725823</MEAN_MOTION><ECCENTRICITY>.0000906</ECCENTRICITY><INCLINATION>87.9184</INCLINATION><RA_OF_ASC_NODE>128.6451</RA_OF_ASC_NODE><ARG_OF_PERICENTER>112.4737</ARG_OF_PERICENTER><MEAN_ANOMALY>247.6492</MEAN_ANOMALY></meanElements><tleParameters><EPHEMERIS_TYPE>0</EPHEMERIS_TYPE><CLASSIFICATION_TYPE>U</CLASSIFICATION_TYPE><NORAD_CAT_ID>54126</NORAD_CAT_ID><ELEMENT_SET_NO>999</ELEMENT_SET_NO><REV_AT_EPOCH>5512</REV_AT_EPOCH><BSTAR>.2675E-3</BSTAR><MEAN_MOTION_DOT>.12E-5</MEAN_MOTION_DOT><MEAN_MOTION_DDOT>0</MEAN_MOTION_DDOT></tleParameters></data></segment></body></omm>

</ndm>
